{
  "type": "FeatureCollection",
  "features": [
    {
      "type": "Feature",
      "properties": {
        "norad_id": 34765,
        "name": "IRIDIUM 33 DEB",
        "group": "iridium-33-debris",
        "lat": 43.93484478806066,
        "lon": -150.0199827959866,
        "alt_km": 751.809697232241,
        "timestamp": "2025-12-10T23:33:13.203318+00:00",
        "meta_object_name": "IRIDIUM 33 DEB",
        "meta_object_id": "1997-051LJ",
        "meta_epoch": "2025-12-10T09:40:41.988864",
        "meta_mean_motion": 14.40455804,
        "meta_eccentricity": 0.00152,
        "meta_inclination": 86.3395,
        "meta_ra_of_asc_node": 33.7642,
        "meta_arg_of_pericenter": 219.5885,
        "meta_mean_anomaly": 160.3366,
        "meta_ephemeris_type": 0,
        "meta_classification_type": "U",
        "meta_norad_cat_id": 34765,
        "meta_element_set_no": 999,
        "meta_rev_at_epoch": 87580,
        "meta_bstar": 0.00061829998,
        "meta_mean_motion_dot": 1.986e-05,
        "meta_mean_motion_ddot": 0,
        "tle_line1": "1 34765U 97051LJ  25344.40326376  .00001986  00000+0  61830-3 0  9990",
        "tle_line2": "2 34765  86.3395  33.7642 0015200 219.5885 160.3366 14.40455804875800"
      },
      "geometry": {
        "type": "Point",
        "coordinates": [
          -150.0199827959866,
          43.93484478806066
        ]
      }
    },
    {
      "type": "Feature",
      "properties": {
        "norad_id": 34833,
        "name": "IRIDIUM 33 DEB",
        "group": "iridium-33-debris",
        "lat": 13.344534406351725,
        "lon": -129.10572205673998,
        "alt_km": 712.0297898403878,
        "timestamp": "2025-12-10T23:33:13.203329+00:00",
        "meta_object_name": "IRIDIUM 33 DEB",
        "meta_object_id": "1997-051MH",
        "meta_epoch": "2025-12-10T04:50:56.700096",
        "meta_mean_motion": 14.52352974,
        "meta_eccentricity": 0.0021797,
        "meta_inclination": 86.3927,
        "meta_ra_of_asc_node": 52.0875,
        "meta_arg_of_pericenter": 106.3594,
        "meta_mean_anomaly": 307.6921,
        "meta_ephemeris_type": 0,
        "meta_classification_type": "U",
        "meta_norad_cat_id": 34833,
        "meta_element_set_no": 999,
        "meta_rev_at_epoch": 87678,
        "meta_bstar": 0.0011722,
        "meta_mean_motion_dot": 4.804e-05,
        "meta_mean_motion_ddot": 0,
        "tle_line1": "1 34833U 97051MH  25344.20204514  .00004804  00000+0  11722-2 0  9999",
        "tle_line2": "2 34833  86.3927  52.0875 0021797 106.3594 307.6921 14.52352974876785"
      },
      "geometry": {
        "type": "Point",
        "coordinates": [
          -129.10572205673998,
          13.344534406351725
        ]
      }
    },
    {
      "type": "Feature",
      "properties": {
        "norad_id": 34870,
        "name": "IRIDIUM 33 DEB",
        "group": "iridium-33-debris",
        "lat": -13.59494000267238,
        "lon": -46.00493201555891,
        "alt_km": 655.7738852516932,
        "timestamp": "2025-12-10T23:33:13.203338+00:00",
        "meta_object_name": "IRIDIUM 33 DEB",
        "meta_object_id": "1997-051MQ",
        "meta_epoch": "2025-12-10T09:39:54.584640",
        "meta_mean_motion": 14.76351928,
        "meta_eccentricity": 0.00158535,
        "meta_inclination": 86.3109,
        "meta_ra_of_asc_node": 315.154,
        "meta_arg_of_pericenter": 191.0741,
        "meta_mean_anomaly": 321.7047,
        "meta_ephemeris_type": 0,
        "meta_classification_type": "U",
        "meta_norad_cat_id": 34870,
        "meta_element_set_no": 999,
        "meta_rev_at_epoch": 88876,
        "meta_bstar": 0.0022898178,
        "meta_mean_motion_dot": 0.00015968,
        "meta_mean_motion_ddot": 0,
        "tle_line1": "1 34870U 97051MQ  25344.40271510  .00015968  00000+0  22898-2 0  9991",
        "tle_line2": "2 34870  86.3109 315.1540 0015853 191.0741 321.7047 14.76351928888762"
      },
      "geometry": {
        "type": "Point",
        "coordinates": [
          -46.00493201555891,
          -13.59494000267238
        ]
      }
    },
    {
      "type": "Feature",
      "properties": {
        "norad_id": 34896,
        "name": "IRIDIUM 33 DEB",
        "group": "iridium-33-debris",
        "lat": -71.4676583910597,
        "lon": 158.51423007537727,
        "alt_km": 665.8063501719598,
        "timestamp": "2025-12-10T23:33:13.203347+00:00",
        "meta_object_name": "IRIDIUM 33 DEB",
        "meta_object_id": "1997-051MY",
        "meta_epoch": "2025-12-10T06:18:53.078976",
        "meta_mean_motion": 14.66236202,
        "meta_eccentricity": 0.0024107,
        "meta_inclination": 86.3294,
        "meta_ra_of_asc_node": 327.796,
        "meta_arg_of_pericenter": 223.7133,
        "meta_mean_anomaly": 198.9285,
        "meta_ephemeris_type": 0,
        "meta_classification_type": "U",
        "meta_norad_cat_id": 34896,
        "meta_element_set_no": 999,
        "meta_rev_at_epoch": 87583,
        "meta_bstar": 0.0014714,
        "meta_mean_motion_dot": 8.162e-05,
        "meta_mean_motion_ddot": 0,
        "tle_line1": "1 34896U 97051MY  25344.26311434  .00008162  00000+0  14714-2 0  9999",
        "tle_line2": "2 34896  86.3294 327.7960 0024107 223.7133 198.9285 14.66236202875838"
      },
      "geometry": {
        "type": "Point",
        "coordinates": [
          158.51423007537727,
          -71.4676583910597
        ]
      }
    },
    {
      "type": "Feature",
      "properties": {
        "norad_id": 34926,
        "name": "IRIDIUM 33 DEB",
        "group": "iridium-33-debris",
        "lat": 54.00917435895806,
        "lon": 14.433030356518481,
        "alt_km": 729.4301919149893,
        "timestamp": "2025-12-10T23:33:13.203358+00:00",
        "meta_object_name": "IRIDIUM 33 DEB",
        "meta_object_id": "1997-051NF",
        "meta_epoch": "2025-12-10T08:30:38.692800",
        "meta_mean_motion": 14.54232236,
        "meta_eccentricity": 0.00758375,
        "meta_inclination": 86.132,
        "meta_ra_of_asc_node": 9.3785,
        "meta_arg_of_pericenter": 300.9575,
        "meta_mean_anomaly": 73.1796,
        "meta_ephemeris_type": 0,
        "meta_classification_type": "U",
        "meta_norad_cat_id": 34926,
        "meta_element_set_no": 999,
        "meta_rev_at_epoch": 86422,
        "meta_bstar": 0.0084014253,
        "meta_mean_motion_dot": 0.00037149,
        "meta_mean_motion_ddot": 0,
        "tle_line1": "1 34926U 97051NF  25344.35461450  .00037149  00000+0  84014-2 0  9994",
        "tle_line2": "2 34926  86.1320   9.3785 0075837 300.9575  73.1796 14.54232236864224"
      },
      "geometry": {
        "type": "Point",
        "coordinates": [
          14.433030356518481,
          54.00917435895806
        ]
      }
    },
    {
      "type": "Feature",
      "properties": {
        "norad_id": 34985,
        "name": "IRIDIUM 33 DEB",
        "group": "iridium-33-debris",
        "lat": -76.21728674799297,
        "lon": -107.37004685234349,
        "alt_km": 746.7654202950835,
        "timestamp": "2025-12-10T23:33:13.203367+00:00",
        "meta_object_name": "IRIDIUM 33 DEB",
        "meta_object_id": "1997-051NR",
        "meta_epoch": "2025-12-10T04:10:55.898976",
        "meta_mean_motion": 14.41991528,
        "meta_eccentricity": 0.00204833,
        "meta_inclination": 86.3695,
        "meta_ra_of_asc_node": 57.9739,
        "meta_arg_of_pericenter": 228.6146,
        "meta_mean_anomaly": 160.5649,
        "meta_ephemeris_type": 0,
        "meta_classification_type": "U",
        "meta_norad_cat_id": 34985,
        "meta_element_set_no": 999,
        "meta_rev_at_epoch": 87138,
        "meta_bstar": 0.00097130288,
        "meta_mean_motion_dot": 3.211e-05,
        "meta_mean_motion_ddot": 0,
        "tle_line1": "1 34985U 97051NR  25344.17425809  .00003211  00000+0  97130-3 0  9994",
        "tle_line2": "2 34985  86.3695  57.9739 0020483 228.6146 160.5649 14.41991528871386"
      },
      "geometry": {
        "type": "Point",
        "coordinates": [
          -107.37004685234349,
          -76.21728674799297
        ]
      }
    },
    {
      "type": "Feature",
      "properties": {
        "norad_id": 35051,
        "name": "IRIDIUM 33 DEB",
        "group": "iridium-33-debris",
        "lat": 25.764125491094735,
        "lon": -172.14997346317926,
        "alt_km": 728.8363184865148,
        "timestamp": "2025-12-10T23:33:13.203376+00:00",
        "meta_object_name": "IRIDIUM 33 DEB",
        "meta_object_id": "1997-051NX",
        "meta_epoch": "2025-12-10T01:16:41.683872",
        "meta_mean_motion": 14.47578215,
        "meta_eccentricity": 0.00106632,
        "meta_inclination": 86.3242,
        "meta_ra_of_asc_node": 10.0324,
        "meta_arg_of_pericenter": 98.47,
        "meta_mean_anomaly": 261.7712,
        "meta_ephemeris_type": 0,
        "meta_classification_type": "U",
        "meta_norad_cat_id": 35051,
        "meta_element_set_no": 999,
        "meta_rev_at_epoch": 86957,
        "meta_bstar": 0.00086361177,
        "meta_mean_motion_dot": 3.199e-05,
        "meta_mean_motion_ddot": 0,
        "tle_line1": "1 35051U 97051NX  25344.05326023  .00003199  00000+0  86361-3 0  9993",
        "tle_line2": "2 35051  86.3242  10.0324 0010663  98.4700 261.7712 14.47578215869570"
      },
      "geometry": {
        "type": "Point",
        "coordinates": [
          -172.14997346317926,
          25.764125491094735
        ]
      }
    }
  ]
}